name,address,lat,lng,zone
Clases de YOGA ~ Amalia,"2225, Buenos Aires",-34.6480804,-58.37891980000001,Centro
"Centro Hol√≠stico de Yoga, Astrolog√≠a y Musicoterapia",Famatina 3302,-34.646037,-58.40824840000001,Caballito
Estudio de Yoga -Milagros Garc√≠a,"DYF, Cachi 210, C1437DYF",-34.6457271,-58.4126449,Caballito
Is Espacio de Yoga,Gregorio de Laferr√®re 3738,-34.6441456,-58.47045549999999,Caballito
Casa 8 - Estudio de Yoga,San Pedro 4055,-34.6439267,-58.4756341,Caballito
Centro de Yoga,Lagos 2989,-34.6426164,-58.4042402,Caballito
RAY√úN - TERAPIAS,Trole 149,-34.641695,-58.4194755,Caballito
Unalom Yoga Estudio,Av. Eva Per√≥n 2512,-34.6406891,-58.4558273,Caballito
Espacio Amatista Yoga,Juan de Alag√≥n 53,-34.640472,-58.42229990000001,Caballito
Crezia Pilates & Yoga,Av. Amancio Alcorta 1867,-34.6385896,-58.3879071,Caballito
Clases de yoga y pilates mats,Manuel Garc√≠a 209,-34.638068,-58.3966282,Caballito
Yoga Melina,Santander 1855,-34.63760389999999,-58.4458663,Caballito
Chatra Yoga Parque Patricios,"Sanchez de Loria 2345 No es a la calle, S√°nchez de Loria 2343 C1241ACT EDIFICIO PISO 6",-34.6375421,-58.4112312,Centro
YOW Yoga & Wellness,"S√°nchez de Loria 2317, C1241ACU",-34.637231,-58.4111827,Caballito
Ashtanga Yoga Parque Chacabuco,Curapalig√ºe 1242,-34.6369498,-58.4453883,Caballito
EXHALA YOGA STUDIO,Av. Asamblea 1436,-34.6368278,-58.4453128,Caballito
Yoga y Pilates,Av. Caseros 2825,-34.6364584,-58.4025567,Centro
Clases de Yoga Iyengar. Parque Chacabuco. Lorena Ghirimoldi,"Balbastro y Centenera, Av. Jos√© Mar√≠a Moreno 1500",-34.6363242,-58.43313919999999,Caballito
Hari Om,Doblas 1693,-34.63595300000001,-58.4274814,Caballito
Yoga y Pilates laura,Baigorri 191 191,-34.6356619,-58.3859038,Centro
Ashtanga Yoga Floresta,Av. Juan Bautista Alberdi 3515 A,-34.6356055,-58.47566510000001,Caballito
Sense Yoga,Av. Jujuy 2122,-34.63504560000001,-58.3990352,Centro
SolVida Yoga&Masajes,Pedernera 485,-34.6346992,-58.4619738,Caballito
Yoga&Chi kung,Av. Carabobo 690,-34.6342711,-58.45277160000001,Caballito
Yoga & Wellness,La Rioja 1925,-34.6341115,-58.40611000000001,Caballito
Fundaci√≥n Hastinapura Parque Chacabuco,Del Barco Centenera 1243,-34.6337813,-58.43644909999999,Caballito
Espacio Konasana yoga,Av. Coronel Esteban Bonorino 477 PB,-34.6333413,-58.45747129999999,Caballito
El Cielo Espacio,Ensenada 7,-34.6333242,-58.47875599999999,Caballito
Instituto de Yoga Maria Poveda,Ciudad Aut√≥noma de Buenos Aires,-34.6332418,-58.40758340000001,Caballito
Espacio Compromiso Bienestar,Salcedo 3274,-34.6329387,-58.41101509999999,Caballito
Yoga Barracas,Gualeguay 1330,-34.6329336,-58.3716878,Caballito
Prakriti Yoga,Malvinas Argentinas 765,-34.6327165,-58.4486154,Caballito
Yoga Flores Ananda Vital,Zona Misericordia,-34.6323537,-58.4579061,Caballito
Burpee FTG,"Plaza 11 de Noviembre, Av. Juan Bautista Alberdi 2641, Av. Varela 446, Buenos Aires",-34.631971,-58.46513669999999,Caballito
Anandi Yoga,Av. Carabobo 436,-34.63192,-58.4539863,Caballito
Garage del Carmen,Ituzaing√≥ 747,-34.6307815,-58.37483959999999,Centro
Ayelen Yoga Sattva,Av. La Plata 1300,-34.6302693,-58.4257403,Caballito
Yoga Estudio,Irala 131,-34.6300035,-58.3687086,Centro
Yoga Kai,"Av. Juan Bautista Alberdi 2048, GRW",-34.6299171,-58.4571491,Caballito
ahimsa espacio de yoga,"Av directorio, Emilio Mitre y",-34.6293557,-58.44288779999999,Caballito
Dhara Pilates¬Æ,"Cnel. Ram√≥n L. Falc√≥n 2212 piso 1, depto A",-34.629338,-58.459484,Caballito
Gabi Nieto Yoga,Av. Avellaneda 3885,-34.629288,-58.4835631,Caballito
MULTIESPACIO MUNA- Terapias y Magias,Av. Juan Bautista Alberdi 1756,-34.6284323,-58.4534906,Caballito
Melom Yoga,Av. Directorio 647 1424,-34.6280234,-58.43655339999999,Caballito
Om Maha Yoga,Treinta y Tres Orientales 1117,-34.6279551,-58.4226016,Caballito
Espacio Yogamar,Av. La Plata 1057,-34.627799,-58.42673509999999,Caballito
Espacio de yoga,"Av. Juan de Garay 2085, C1256AAC",-34.6274737,-58.3941732,Centro
ESPACIO YOGA Flores,Av. Carabobo 37,-34.6273138,-58.45660119999999,Caballito
Vivianayoga,"Del Barco Centenera 652 2¬∞ ""A",-34.6271781,-58.4404553,Caballito
Dellarmonia,Granaderos 50,-34.6268967,-58.4593242,Caballito
Conciencia Astral,Av. Pedro Goyena 1054,-34.6268723,-58.4423729,Caballito
Espacio yoga,Av. Jos√© Mar√≠a Moreno 704 dpto 3,-34.6268522,-58.43393549999999,Caballito
DespertarYoga_Rocio,Av. Boyac√° 27,-34.6262601,-58.4568305,Caballito
Casa Yogui,Av. Boyac√° 27,-34.6262601,-58.4568305,Caballito
Marcela Masculino Yoga,Yerbal 1994,-34.6260049,-58.45824990000001,Caballito
Estudio Yoga Presente,Av. Rivadavia 6210,-34.6258275,-58.4541168,Caballito
Etnya Pilates,"Av. Pedro Goyena 388, C1424BSQ",-34.6258194,-58.4326066,Caballito
Uno Yoga,Pu√°n 205,-34.6255963,-58.4479621,Caballito
Alejandrina Yoga Masajes,"Av San Juan, Av. Boedo y",-34.6254582,-58.41612829999999,Caballito
Fundaci√≥n Hastinapura,"Av. San Juan 3679, ABG",-34.6254471,-58.4173614,Caballito
"HerManadas, espacio de multiencuentro",Cochabamba 2741,-34.625422,-58.40366280000001,Centro
Yoga Life,Brasil 431,-34.625311,-58.3716152,Centro
Yoga por Hari,Brasil 300,-34.6253092,-58.36934489999999,Centro
SATYAM YOGA Caballito para la MUJER,Av. Rivadavia 6126,-34.6251654,-58.4524754,Caballito
DeROSE Method Puan,Av. Juan Bautista Alberdi 1310,-34.62498,-58.4466802,Caballito
AESTUDIO - yoga en San Telmo,"Timbre ae, Defensa 1460",-34.6248916,-58.37100650000001,Centro
yoga terapeutico,"Av. Tte. Gral. Donato √Ålvarez 73, C1406BNA",-34.624739,-58.4543513,Caballito
Centro yoga y bienestar,Av. Tte. Gral. Donato √Ålvarez 75,-34.6247136,-58.45436350000001,Caballito
Casa Valle,Valle 715,-34.624693,-58.437924,Caballito
yoga,Hualfin 896,-34.6239208,-58.4405193,Caballito
ESPACIO AURA YOGA,"Comuna 11, San Nicol√°s 841",-34.6238278,-58.4820632,Caballito
Casa Vaiu Yoga,"Saavedra 1182, C1229ACN",-34.6231648,-58.4008559,Centro
"Argentina Kundalini Yoga . Clases Presenciales, Online Virtuales y en el Parque",Av. Juan Bautista Alberdi 1090,-34.623078,-58.443219,Caballito
Instituto de Yoga Mataji,C. Dr. Juan Felipe Aranguren 2314,-34.6228005,-58.46402299999999,Caballito
Yoga Habitando el Ser,"Maza, Estados Unidos y",-34.6226939,-58.4147872,Caballito
Ashtanga Yoga Caballito,Gral. Mart√≠n de Gainza 40,-34.6218031,-58.44547060000001,Caballito
Yana Yoga & Armonizaci√≥n - Caballito,"Guayaquil 777 y, Villa Luro",-34.6216613,-58.4391064,Caballito
Yogaestar,"Guayaquil 700, C1424CIA, Buenos Aires",-34.6215683,-58.438756,Caballito
Clases de Yoga Iyengar en Flores ‚ÄúATHA YOGA ESTUDIO IYENGAR‚Äù- Profesores certificados,"Alfredo R. Bufano, Felipe Vallese y, Buenos Aires",-34.6213798,-58.4655087,Caballito
YOGA en C.A.B.A.,Lima 1125,-34.62120290000001,-58.3816189,Centro
San Telmo Yoga,Bol√≠var 1128,-34.6210482,-58.3727943,Centro
Yoga y Vida,Humberto 1¬∫ 936,-34.6209605,-58.3792833,Centro
Yoga Vida Vital,"Humberto Primo, Piedras y",-34.6209181,-58.3773448,Centro
Ashtanga Yoga San Telmo,"Bol√≠var, Humberto 1¬∫ y",-34.6208513,-58.3728063,Centro
Yoga Aldea Shakti,Av. Alicia Moreau de Justo 1848,-34.620621,-58.3650014,Centro
Estudio de Yoga Iyengar Laura Basile en San Telmo,"Humberto 1¬∫ y, Balcarce",-34.620574,-58.37020669999999,Centro
Shala Club Yoga y Bienestar,Rosario 732,-34.6205199,-58.4391396,Caballito
stretch club,1063,-34.62002,-58.3701436,Centro
Move On Pilates,Guayaquil 124,-34.6198047,-58.4301578,Caballito
Desde el cuerpo | YOGA,Tacuar√≠ al 1000,-34.6196603,-58.37878180000001,Centro
Yoga Cristal y OKEA Astrolog√≠a psicol√≥gica,Viel 222,-34.6193935,-58.433061,Caballito
Espacio Saraswati,Salta 944,-34.619039,-58.3828681,Centro
Ashtanga Yoga San Crist√≥bal - Milita Yoga,Combate de los Pozos 825,-34.618744,-58.39337399999999,Centro
Piso8cho,Rosario,-34.61868,-58.43207589999999,Caballito
Dharma yoga,Av. Independencia 2210,-34.6186279,-58.39768890000001,Centro
Casa M√°rmol,Jos√© M√°rmol 446,-34.61853800000001,-58.425508,Caballito
"Aeroyoga y Aeropilates Plaza Irlanda Ô∏è Yoga, Pilates y Fitness Aereo",M√©ndez de And√©s 1637,-34.6182601,-58.4567858,Caballito
Yoga,C. Dr. Juan Felipe Aranguren 1267,-34.6173773,-58.4492317,Caballito
Bisma Yoga,"Timbre Negro, Ciudad At√≥noma de Buenos Aires Ciudad Aut√≥noma de Buenos Aires AR, Gral. C√©sar D√≠az 3342 Dpto 1, ETB",-34.617345,-58.4843939,Caballito
Yoga Prema Devi,Av. Boyac√° 927,-34.6170187,-58.4633438,Caballito
Aeroyoga Caballito,Giordano Bruno 800,-34.6169544,-58.44112829999999,Caballito
Dhamma Abhyasa Yoga,Pje. el Maestro 52,-34.6168839,-58.43098920000001,Caballito
Yoga Centro,Tacuar√≠ 745,-34.6168546,-58.3788833,Centro
Ananta . Yoga y hol√≠stica,Rojas 389,-34.6164432,-58.4430332,Caballito
Yoga Surya,"Maza 448, C1206ACJ",-34.6163703,-58.41544089999999,Caballito
Espacio Orden Natural - Sede Morelos,Morelos 765,-34.6162654,-58.4569535,Caballito
Las Juanas Artes Esc√©nicas - Escuela de Danza - Yoga - Sala de ensayos,Santiago del Estero 657,-34.6161524,-58.3845653,Caballito
Lilapilates YOGA ‚Äç Ô∏è ‚Äç Ô∏è ‚Äç Ô∏è,"Av. Belgrano 4200, Jos√© M√°rmol 300, Buenos Aires",-34.6160575,-58.4258325,Caballito
Pratyaksa Yoga,Av. Belgrano 3716,-34.6160467,-58.4187848,Caballito
Indigo Hatha Yoga,"Dr Gregorio Araoz Alfaro, Av. Acoyte y, Buenos Aires",-34.6157835,-58.43747079999999,Caballito
Purna,Neuqu√©n 1526,-34.6157822,-58.45511759999999,Caballito
Sen.Ti Yoga,Dr. Luis Bel√°ustegui 2755,-34.6157316,-58.4763216,Caballito
Maestro Pilates,Pje. Dr. Gregorio Ar√°oz Alfaro 421,-34.6155659,-58.4367002,Caballito
Espacio Ginkgo,"C1416DNK, Luis Viale 2301-2325",-34.6155308,-58.4678969,Caballito
Centro de Yoga Inti Killa,"Pres. Luis S√°enz Pe√±a 600, C1077AAO",-34.6153746,-58.3873748,Centro
Hastinapura Monserrat,"Solis 576 3er piso , CABA, C1098ABC",-34.6153508,-58.39030440000001,Centro
Yoga Renaciendo Caballito,Eduardo Acevedo 27,-34.6152258,-58.4307083,Caballito
Yoga alma yogui v.l.,Quintino Bocayuva 228,-34.6151665,-58.4229104,Caballito
Escuela Espacio Om,Paysand√∫ 745,-34.6149156,-58.4510848,Caballito
@cuerpoenarmonia_yoga,Galicia 2338,-34.6149114,-58.4689801,Caballito
Siendo Bienestar,Av. Rivadavia 4500,-34.6148307,-58.4282373,Caballito
Yoga Iyengar / Mariana Indart,"C1209ABQ, Moreno 3655, Buenos Aires",-34.614559,-58.4178405,Caballito
Espacio Odara Yoga,Gavil√°n 1380,-34.6143084,-58.4673031,Caballito
Concepto Yoga Lakshmi,Av. Boedo 200,-34.6138883,-58.41701819999999,Caballito
Lokah Yoga Studio,Dr. Eleodoro Lobos 330,-34.6137599,-58.4357887,Caballito
Escuela Taitoku de Yoga y Medicina Oriental,San Blas 3060,-34.6125657,-58.4834022,Caballito
Armonia Interior Yoga Noelia Taddia,Manuel Ricardo Trelles 1300,-34.6123952,-58.46155979999999,Caballito
MUTA - Yoga,Colombres 65,-34.6122518,-58.41957319999999,Caballito
Yoga con Elementos,"Tres Arroyos, Av. Boyac√° Y",-34.6121145,-58.4663335,Caballito
Ekam Prema Yoga & Ayurveda,Terrada 1884,-34.6120419,-58.4792721,Caballito
Yoga Buenos Aires - Sede Almagro,Gasc√≥n 50,-34.6119527,-58.4241311,Caballito
Ashtanga Yoga Balvanera,Adolfo Alsina 1916,-34.6117618,-58.3935371,Caballito
Yoguialsamadhi. N√∫cleo de pr√°ctica de Yoga.,Caracas 1688,-34.6117216,-58.4708728,Caballito
Sankalpa Espacio . Yoga y Entrenamiento Consciente,J B Ambrosetti 580,-34.6117115,-58.4381104,Caballito
Hol√≠stica Yoga & Pilates,Virrey Liniers 71 piso 5 depto F,-34.6116708,-58.41567659999999,Caballito
Ashtanga Yoga Congreso de Emilia Escaris Pazos,Adolfo Alsina 1900,-34.6115304,-58.3934007,Centro
Namast√© Yoga,Gral. C√©sar D√≠az 2463,-34.6113959,-58.4734759,Caballito
Yoga en Congreso,Av. Entre R√≠os 166,-34.610952,-58.3916361,Centro
CORPO| YOGA y MASAJES AYURVEDICOS,Paysand√∫ 1143 timbre 3,-34.6107476,-58.45383349999999,Caballito
OM ALLIANCE YOGA,"No se dictan clases presenciales en esta direcci√≥n, Av. Rivadavia 3000",-34.6104735,-58.40878579999999,Caballito
ESPACIO YOGA Caballito,Hidalgo 802,-34.6101019,-58.4412246,Caballito
YOGA SERENIDAD,"C1416 Cdad. Aut√≥noma de Buenos Aires, Argentina",-34.6100457,-58.46688359999999,Caballito
Balvanera Yoga,"Av. Rivadavia 2530, ACR",-34.6100225,-58.40224079999999,Centro
Katui_Yoga,Bulnes 87,-34.6099018,-58.41853419999999,Caballito
Casa colivri,Galicia 1350,-34.6093346,-58.457427,Caballito
Vita Centro de Bienestar,"C1002AAQ HIPOLITO YRIGOYEN 434 6to J, Buenos Aires",-34.60907419999999,-58.3726455,Centro
Brillos de Yoga,Av. Boyac√° 1853 Piso 4,-34.608994,-58.46928879999999,Caballito
Lo que Vibras te encuentra,Av. D√≠az V√©lez 3934,-34.6087123,-58.4220403,Caballito
Raiz Interior espacio de Yoga,Av. Rivadavia 1227,-34.6085442,-58.3838568,Centro
Akarma Yoga,Pujol 1249,-34.6081493,-58.4522248,Caballito
1H Yoga,parque de la mujer,-34.6081435,-58.3610884,Centro
Yoga Kali Ashtanga Vinyasa,Ayacucho 136,-34.6076537,-58.3951016,Centro
"Aditi, Registros Ak√°shicos",Gasc√≥n 342,-34.6076011,-58.42453809999999,Caballito
KURMA YOGA,Hidalgo,-34.6075427,-58.4414211,Caballito
BHADRAM BA,R√≠o de Janeiro 670,-34.6074986,-58.43076250000001,Caballito
Mixtura Pilates,Dr. Nicol√°s Repetto 1293,-34.6074411,-58.4498548,Caballito
Gisela Sueyro Yoga,Paran√° 123,-34.6074318,-58.3875922,Centro
NIDO YOGA,Av. Callao 194,-34.60695010000001,-58.39226089999999,Centro
Yoga integral,"Sarmiento 3057, C1196AAE",-34.6066058,-58.409473,Caballito
Dynamuv,Cangallo 77,-34.6062143,-58.4317383,Caballito
Satƒ´‚Ä¢PƒÅrvatƒ´ ~ Yoga con Elementos,Uruguay 252,-34.605869,-58.3866497,Centro
Congreso Yoga,Jun√≠n 339,-34.605454,-58.3965741,Centro
Frontera Yoga,Jun√≠n 339,-34.605454,-58.3965741,Centro
Laura Alperovich Yoga y Bioenerg√©tica,Av. Medrano 485,-34.6052502,-58.42111569999999,Caballito
Ayre Yoga,Valent√≠n G√≥mez 3071 C1191AAE,-34.6051988,-58.4089724,Caballito
Yoga Congreso,"Av. Callao 339 2¬∫, AAD",-34.6051355,-58.3920535,Centro
Shala&Casa - Iyengar Yoga,Sarmiento 4044 1¬∞5¬∞,-34.6048663,-58.4219555,Caballito
Tu Espacio Henko,Av. Boyac√° 2271,-34.6048353,-58.472687,Caballito
Panda - Espacio de yoga,Mahatma Gandhi 427,-34.6045491,-58.44232530000001,Caballito
Yoga en vos,"C1414BYD Ciudad Aut√≥noma de Buenos Aires AR, Leopoldo Marechal 1220, BYD",-34.604279,-58.44031709999999,Caballito
Espacio Vertiente,Galicia 526,-34.6042723,-58.44892829999999,Caballito
Iara Yoga,Sarmiento 4287,-34.604269,-58.4255123,Caballito
Yoga del Angel,Av. √Ålvarez Jonte 2012,-34.6040784,-58.47185340000001,Caballito
Casa de Yoga Iyengar,"Buenos Aires AR, Remedios Escalada de San Mart√≠n 1075, Villa Crespo",-34.604049,-58.45646569999999,Caballito
Yoga Din√°mico en Almagro,Bulnes 638 Sala 5,-34.6040458,-58.4186592,Caballito
Alma del Parque,"Camargo 120 sal√≥n Ciudad Aut√≥noma de Buenos Aires AR, AHD",-34.6038123,-58.4372332,Caballito
Lila Shala Yoga,parque centenario,-34.6037021,-58.43908709999999,Caballito
Yoga Adri Larguero,San Blas 1667,-34.6036327,-58.46577389999999,Caballito
Susthiti Yoga International School,Trinidad Guevara 335,-34.6033422,-58.3643249,Centro
Samadhi Yoga,"Paran√° 473 1¬∫ B, Ciudad autonoma de Buenos Aires",-34.6033136,-58.3878557,Centro
Melisa Garda Terapeuta Hol√≠stica,"C1416 Cdad. Aut√≥noma de Buenos Aires, Argentina",-34.6032566,-58.4614287,Caballito
Eyra Yoga,Av. Angel Gallardo 98,-34.6030134,-58.43374859999999,Caballito
Chandra Yoga Iyengar,"Lavalle 2849, 1190, C1190AAC, AAC",-34.6030073,-58.4067654,Caballito
Flor yoga,Antezana 21,-34.6028728,-58.441858,Caballito
Elasticaclubdeyoga,"CMN, Gral. Manuel A. Rodr√≠guez 1732, C1416CMN",-34.6028179,-58.45293270000001,Caballito
ConCiencia Yoga,Av. Corrientes 4320,-34.6027924,-58.42615799999999,Caballito
Urdhva Espacio YOGA,Montevideo 513,-34.6026951,-58.38940820000001,Centro
Sankalpa Pilates y Yoga,Maip√∫ 484,-34.6025759,-58.3767692,Centro
Sodhana Yoga,"MicroCentro, Maip√∫ 484 Piso 2",-34.6025649,-58.37684249999999,Centro
Clases Ashtanga Yoga Micaela Mu√±oz,Luis Viale 108,-34.6025165,-58.4440675,Caballito
Naturaleza yoga,Tucum√°n 2200,-34.602248,-58.3984065,Centro
Matria- Espacio de Yoga,"Tucum√°n 2576, ABD",-34.6020533,-58.4032705,Centro
Fundaci√≥n Hastinapura,Tucum√°n 1762,-34.602046,-58.39200460000001,Centro
Yoga Prana,Yatay 834,-34.6019982,-58.4285996,Caballito
Yoga Integral BILBO,Mario Bravo 641,-34.6019495,-58.41632190000001,Caballito
Yoga Centro AMA SURYA,"Bulnes 854, C1176ABP",-34.6016379,-58.4179988,Caballito
Shanti Dance Yoga & Pilates,"Larrea, Viamonte y",-34.601445,-58.4024553,Centro
ARKA Yoga Iyengar,Azcu√©naga 688,-34.601355,-58.40105980000001,Centro
Be Balance Studio Pilates MicroCentro,Tucum√°n 810,-34.6013495,-58.3783878,Centro
Gokulam Ashtanga Yoga Ashram,Vera 256,-34.6012681,-58.43579440000001,Caballito
Espacio Ra√≠z Pilates y Yoga,Uruguay 667,-34.6009759,-58.386604,Centro
Delmar - Ashtanga & Rocket Yoga,Guardia Vieja 4083,-34.6004652,-58.42186699999999,Caballito
YAD YOGAARTEDISCAPACIDADWATERYOGA Chris la Valle,Larrea 736 3 c,-34.6004323,-58.40250299999999,Centro
Yoga con Elementos - Almagro,"Lavalle, Mario Bravo y",-34.5997315,-58.41599789999999,Centro
Malva Yoga,Vera 408,-34.5997286,-58.43719149999999,Caballito
Bienestar en Movimiento,Juli√°n √Ålvarez 563,-34.5996664,-58.4344176,Caballito
PrimaYoga y Sanaci√≥n,Av. C√≥rdoba 2448,-34.5995409,-58.4017759,Centro
Yoga estudio,Florida 732,-34.5995004,-58.37544629999999,Centro
Hot Room Yoga,"Esmeralda 754, ABH",-34.5994448,-58.37833839999999,Centro
MARINA LORENZO YOGA,Av. C√≥rdoba 857,-34.5987906,-58.37909920000001,Centro
Ganesha Yoga Recoleta,Paran√° 858,-34.5987228,-58.38827669999999,Centro
Maitri Flow,Paraguay 1560,-34.5985985,-58.38914049999999,Centro
Centro Ama Surya - Clases de Yoga y Acrobacia en Palermo y Recoleta,Paraguay 1567,-34.5983528,-58.3891972,Centro
YOGAYFITNESS,"Juan Ram√≠rez de Velasco 538, AQL",-34.59826049999999,-58.4371108,Caballito
Fundaci√≥n Hampatu,"Florida 835 3¬∫piso. C1005AAQ Ofi 323, AAQ",-34.5982514,-58.37531440000001,Centro
Yoga en almagro,Gasc√≥n 1085,-34.5982241,-58.42315420000001,Centro
Maho Espacio Yoga,Palermo Online,-34.597639,-58.42143919999999,Caballito
Estudio Corporeum,Malabia 584,-34.5976337,-58.43781899999999,Caballito
Padma Yoga Iyengar,Mario Bravo 1029,-34.5975657,-58.4157628,Centro
La Estaci√≥n Yoga,Mario Bravo 1029 7¬∞ A,-34.5974767,-58.4157107,Caballito
Shanti Yoga Buenos Aires,"Marcelo Torcuato de Alvear 1371, Subsuelo A, C1058AAU",-34.5969392,-58.38668080000001,Centro
Ashtanga Yoga Patricia Aballay,"Juan Ram√≠rez de Velasco 675, AQM",-34.5968063,-58.4380201,Caballito
ByBa Yoga Buenos Aires,Montevideo 1035 Planta Alta,-34.5967028,-58.389761,Centro
Bona Yoga,Castillo 384,-34.5966488,-58.4333154,Caballito
"Centro de Euton√≠a, Yoga y Yogaterapia",Rodr√≠guez Pe√±a 1054,-34.5965822,-58.392125,Centro
Escuela Internacional de Yoga,Mario Bravo 1128,-34.5963534,-58.4154857,Palermo
Parama Yoga Recoleta,Av. Sta. Fe 1780,-34.5960783,-58.39291739999999,Centro
Mangala Yoga Shala,"C1414AOQ Buenos Aires AR, Vera 817, Buenos Aires",-34.5960149,-58.4402897,Caballito
Yoga Project BA,Gorriti 3642,-34.5958656,-58.41591929999999,Caballito
wisecatyoga,Gorriti 3642,-34.5958656,-58.41591929999999,Palermo
Grupo Joops,"Av. Sta. Fe 1845, AAA",-34.5956896,-58.3938796,Centro
Iyengar Yoga Recoleta,"Avenida Callao 1103 Piso 9 - Depto. i, Buenos Aires",-34.5956893,-58.39313049999999,Centro
YOGA Y SALUD,Gral. Lucio Norberto Mansilla 2738,-34.595679,-58.40604949999999,Palermo
YOGA CRECIENDO,Jos√© A. Cabrera 4175,-34.5956542,-58.42450729999999,Caballito
Yoga Studio Buenos Aires,Esmeralda 1056,-34.5956391,-58.37857649999999,Centro
Wawa - Bienestar en cada etapa de tu vida,Av. Sta. Fe 1126,-34.5956087,-58.38326439999999,Centro
JESICA LANZILLOTTA,Gorriti 3800,-34.5955564,-58.4183658,Palermo
Sakti Espacio Corporal,Gorriti 3600,-34.5954686,-58.4158067,Caballito
Aeroyoga Palermo,Gorriti 3800,-34.5953537,-58.41882709999999,Caballito
Go Fit Pilates Recoleta,Laprida 1173,-34.5953181,-58.40791549999999,Palermo
Yoga Vidya,"Pringles, Gorriti y, Buenos Aires",-34.5951142,-58.42399719999999,Caballito
Fusi√≥n Corporal Yoga y Pilates,Thames 575,-34.5950245,-58.4420852,Caballito
Yoga Iyengar Monica Moya,Arenales 1645,-34.5949179,-58.3907983,Centro
Movimiento Infinito: Yoga y Esferokinesis.,Jufr√© 495,-34.594874,-58.4329383,Palermo
ƒÄyƒÅma Yoga,"Mario Bravo 1300, C1175ABX",-34.5946167,-58.4148634,Caballito
Creha Salud y Bienestar,Arenales 1280,-34.5946054,-58.385535,Centro
Maas Yoga Recoleta,Ayacucho 1230 PISO 4,-34.5942691,-58.39591919999999,Centro
Tapas estudio de yoga,Lerma 490,-34.594233,-58.43212819999999,Caballito
Yoga GarmendiaOrueta,Honduras 3846,-34.594221,-58.4173428,Caballito
Fundaci√≥n VIDA NATURAL YOGA,Charcas 2852,-34.5939496,-58.406736,Centro
Adhara Yoga,Juli√°n √Ålvarez 1343,-34.5939382,-58.4256109,Caballito
Profesorado de Yoga,Gasc√≥n 1467,-34.59327940000001,-58.42264719999999,Caballito
La Maloca,Gasc√≥n 1467,-34.59327940000001,-58.42264719999999,Caballito
Estudio infinita yoga,Guise 1618,-34.5930962,-58.4151754,Caballito
VIRYA Yoga Studio Recoleta,Ecuador 1511,-34.5927772,-58.402871,Centro
Yoguinis omm : Clases de yoga para ni√±os y adultos Profesorado de yoga para ni√±os,Paraguay 3423,-34.5927296,-58.4137849,Caballito
Dharana Yoga embarazadas & yoga integral & hipopresivos,Paraguay 3423,-34.5927296,-58.4137849,Centro
Yoga Recoleta,Juncal,-34.5926999,-58.3778652,Centro
Yoga Factory,Billinghurst 1533,-34.5926408,-58.4118432,Caballito
Hatha Yoga,Loyola 940,-34.592558,-58.43885799999999,Caballito
Sukha Yoga,El Salvador 4250,-34.5925392,-58.4230977,Caballito
PH Calma Yoga & Meditaci√≥n,Juan Ram√≠rez de Velasco 1158,-34.5925255,-58.442309,Caballito
Ashtanga Yoga Palermo,Malabia 1346,-34.5925148,-58.4298618,Caballito
Yoga en Paternal,Balboa 332,-34.5923678,-58.46640530000001,Caballito
Espacio Solara,Av. C√≥rdoba 4867,-34.5921125,-58.4328614,Caballito
Ashtanga yoga Barrio Norte,Ag√ºero 1595,-34.5919769,-58.4071559,Caballito
MOVIMIENTO ACRO (Clases: Ashtanga Yoga + Rocket Yoga + Invertidas ),Aguirre 1136,-34.5918921,-58.44117669999999,Caballito
Antu Malal Ashtanga Yoga,Arenales 2856,-34.59141,-58.40566659999999,Centro
Maha Yoga Iyengar,Jun√≠n 1480,-34.5910727,-58.3952626,Centro
Vuela Alto Yoga y Meditaci√≥n,Uriarte 1153,-34.5906229,-58.43657109999999,Caballito
Victoriar yoga,Austria 1728,-34.59058,-58.4077028,Centro
"Astroyogadanz: Profesorado de Hatha Yoga especializaci√≥n en Vinyasa. Clases de Yoga, Danza, Pilates y Elongaci√≥n. Astrolog√≠a",Jer√≥nimo Salguero 1674,-34.5905283,-58.41726689999999,Caballito
DIVINA GRULLA ESPACIO HOLISTICO,"Soler 4125, C1425BWS",-34.5904678,-58.4193598,Palermo
"Ambra, Espacio Hol√≠stico",Av. C√≥rdoba 5151,-34.5903222,-58.4355055,Caballito
Respira Yoga,Uriarte 1241,-34.5900013,-58.43572099999999,Caballito
Inspira Yoga Buenos Aires,"Billinghurst 1758, DTH",-34.5899467,-58.40999919999999,Palermo
Espacio H - Yoga & T√©,Honduras 4866,-34.5897513,-58.4289061,Caballito
La Casita de Coca,Gavil√°n 3580,-34.5895945,-58.48698229999999,Coghlan
Estudio yoga Narayana,French 2647,-34.5894871,-58.4011697,Centro
Vikasana Yoga Palermo,Av. Sta. Fe 3200,-34.5893086,-58.4101282,Centro
Yoga Valletierra,Costa Rica 4562,-34.5891812,-58.42594179999999,Caballito
Equilibrar Yoga para Todos,Av. Corrientes 6477,-34.5891745,-58.4500447,Caballito
Aura Yoga,Costa Rica 4606,-34.5886482,-58.42648149999999,Caballito
Espacio Enersense Energy,"Laprida 1898, C1425EKR",-34.5884969,-58.4011191,Palermo
Yoga en Sinton√≠a,"Jacinto de Altolaguirre, entre Mosc√∫, Belgrado y",-34.5884698,-58.48189769999999,Coghlan
Dash Pilates & Yoga,Av. Ra√∫l Scalabrini Ortiz 2069,-34.5881753,-58.4205504,Caballito
Yoga Martina Marr√©,Av. Forest 326,-34.5880981,-58.45150759999999,Caballito
AYOGA Recoleta,Vicente L√≥pez 2240,-34.587477,-58.3957574,Centro
CasaPranna Estudio de Yoga,Av. Sta. Fe 3388,-34.5873303,-58.4130058,Centro
THAI YOGA Eliana Vinitsky,Bucarelli 1243,-34.5871293,-58.47822850000001,Coghlan
Ô∏èSURYA Yoga Integral y Ashtanga Vinyasa,Hamburgo 3279,-34.587024,-58.4840317,Coghlan
Espacio Lilam,"Charcas 3901-3999,C1425BNC, BNC",-34.5866416,-58.41929889999999,Palermo
a·π£·π≠au yoga studio,Austria 2272,-34.5865362,-58.4021926,Centro
Espacio de YOGA SoySer,Av. Salvador Mar√≠a del Carril 2286,-34.5864096,-58.4910567,Coghlan
Be Pulse - Yoga,Fitz Roy 1459 departamento 504,-34.5862878,-58.43863529999999,Caballito
Meraki Yoga,Juan Mar√≠a Guti√©rrez 2775,-34.5860503,-58.40081199999999,Centro
Casa Dharma Yoga,Maure 3971,-34.5859575,-58.45179830000001,Coghlan
Espacio Vibra. Yoga y Masajes Ayurv√©dicos,Gorriti 5479,-34.5858075,-58.4358829,Caballito
"OM Bienestar Integral: Yoga, Coaching y Tarot",Av. Ra√∫l Scalabrini Ortiz 2416,-34.5858041,-58.4173623,Centro
Corporal Centro De Bienestar Fisico,Juli√°n √Ålvarez 2672,-34.5854147,-58.4128672,Centro
Momento de Yoga Ig@momentodeyoga,Pe√±a 3100,-34.5852805,-58.40642860000001,Centro
Argentina Kundalini Yoga,Fraga 599,-34.5848028,-58.45218569999999,Caballito
Escuela de Ashtanga Yoga Buenos Aires,Charlone 155,-34.5843463,-58.44747259999999,Caballito
Laura Lebedinsky Ashtanga Yoga,"Charlone, Santos Dumont &, Buenos Aires",-34.5843107,-58.4480775,Caballito
Yoga Estudio Chacarita,"Fraga 717 P, Fraga 717",-34.5841439,-58.453616,Caballito
YOGA SATTVA,Av. Sta. Fe 3800,-34.5841301,-58.4177175,Caballito
Martin Yoga estudio,"Fraga 717, C1427BTO",-34.5841185,-58.45367270000001,Caballito
Ardha Yoga Estudio,Guatemala 5011,-34.5839009,-58.4273578,Caballito
lule√• Yoga Studio Chacarita,Av. C√≥rdoba 6138,-34.58377979999999,-58.4470311,Caballito
Yoga Flow Terap√©utico Palermo,Darregueyra 2140,-34.5835737,-58.4270253,Caballito
Studio Sinergia,El Salvador 5600,-34.5835384,-58.4354993,Caballito
YOGA LAB,Maure 3700,-34.5833129,-58.45016019999999,Caballito
"‚ñ∑ Yoga Krea: Clases de hatha yoga din√°mico presenciales y online - Recoleta, Ciudad de Buenos Aires.","Coronel Diaz, Av. Gral. Las Heras y, Buenos Aires",-34.5832835,-58.40601699999999,Caballito
Selva Mariana Alegre- Yoga Palermo,El Salvador 5640,-34.5831254,-58.4358616,Caballito
Ashtanga Yoga Claudio Querol,Av. √Ålvarez Thomas 20,-34.5831092,-58.44486610000001,Caballito
Andy Yoga Estudio - Clases de Yoga en Colegiales - Palermo,"Alvarez Thomas, Av. Dorrego y, Buenos Aires",-34.5830442,-58.4450199,Caballito
Simha Yoga Iyengar,"Fraga 1238, C1427BTZ",-34.5830322,-58.4611218,Caballito
Yoga Colegiales,Santos Dumont 3454,-34.5828621,-58.4472025,Caballito
Mood Yoga Soho,"Fray Justo Sta. Mar√≠a de Oro 2178, C1425FOC",-34.582635,-58.4275282,Caballito
Bali.espacio Palermo Hollywood,Costa Rica 5647 1 B,-34.5822392,-58.4350476,Caballito
Escuela de Natha Yoga,C. Silvio L. Ruggeri 2776 PB,-34.5819966,-58.40795120000001,Caballito
Govinda Espacio de Yoga,"Av. Triunvirato 3641, AAJ",-34.5818745,-58.4728004,Caballito
FUSI√ìN NAMAST√â,Roseti 1073,-34.5818613,-58.4578371,Caballito
Yoga Korakai,Gabriela Mistral 2141,-34.581799,-58.49305870000001,Coghlan
Mood Yoga Hollywood,Av. Dorrego 1711 Timbre 11,-34.581735,-58.44304089999999,Caballito
SatChitAnanda Espacio de Yoga,"Villa Ortuzar, Roseti 1727, C1427BWI C1427BWJ",-34.5815872,-58.4663997,Coghlan
Palermo Pilates,"Darregueyra 2387, FLQ",-34.5812241,-58.4246586,Palermo
Centro De Yoga D.C.,"Ar√©valo 1695, CQG",-34.5811278,-58.44041190000001,Caballito
Yoga Verde Vida,"El Salvador, A. J. Carranza y",-34.5809291,-58.4370928,Caballito
Sahya Yoga,Cabello 3652,-34.5808627,-58.41134499999999,Centro
Laura Wigutow Yoga,Charlone 1787,-34.58045720000001,-58.46704049999999,Coghlan
Nalu Yoga y Meditacion,Humboldt 2254,-34.5803966,-58.43077889999999,Palermo
Casa Lapau Yoga,"Gandara, Av. Triunvirato y",-34.5802479,-58.4759011,Coghlan
Centro Yoga En Casa,"C1425 Cdad. Aut√≥noma de Buenos Aires, Argentina",-34.5802096,-58.40989349999999,Centro
Yoga en sincron√≠a,Heredia 1148,-34.5802005,-58.46341750000001,Coghlan
Ariana Noto Yoga,Calle Jorge Newbery 3254,-34.5798152,-58.447059,Coghlan
Hechos de Estrellas,Giribone 1550,-34.5796793,-58.4639921,Coghlan
Nida Yoga,Teodoro Garc√≠a 3399,-34.5791606,-58.45169480000001,Coghlan
Estudio Shakti- Yoga Iyengar,Humboldt 2433,-34.5791209,-58.428371,Palermo
Yoga y Nutrici√≥n,Echeverr√≠a 5073,-34.5790674,-58.48148979999999,Coghlan
Ashtanga Yoga Centro Carlos Frione,Concepci√≥n Arenal 2900,-34.5788597,-58.4419473,Coghlan
YouBe Yoga Studio,Guatemala 5779,-34.5788191,-58.4335949,Coghlan
Rincon del Alma Pilates,"4¬™-56, Av. Triunvirato 4135, Buenos Aires",-34.5787836,-58.4792323,Coghlan
Juan Haberfeld Estudio,Av. √Ålvarez Thomas 1122 depto D,-34.5786443,-58.4575468,Coghlan
Espacio Kyomu - Yoga,"Av. Triunvirato 4135, C1431FBE",-34.5786337,-58.47927519999999,Coghlan
Centro Ananda yoga,Federico Lacroze 3230,-34.5784711,-58.44956310000001,Coghlan
PuraVida Yoga,√Ångel Justiniano Carranza 2200,-34.5784239,-58.4335161,Coghlan
Espacio Consciente Yoga Villa urquiza,Mendoza 5323,-34.5784155,-58.4862035,Coghlan
Urban Lotus,Nicaragua 6042,-34.5782371,-58.438181,Coghlan
Casa Om,"2461 9 piso, Fitz Roy, Buenos Aires",-34.5781718,-58.4291194,Palermo
"FLOW HAPPINESS YOGA, MEDITACI√ìN & TERAPIA EMOCIONES CON BACH (Palermo, Online y Tigre Centro)","Fitz Roy, Av. Sta. Fe Y, Buenos Aires",-34.578153,-58.4291567,Coghlan
Yoga Terap√©utico Colegiales,"Av. Jorge Newbery, Cap. Gral. Ram√≥n Freire &, Buenos Aires",-34.5781411,-58.4462941,Palermo
Estudio Pacifico,"C1425FVG, Fitz Roy 2461, FVG",-34.5780406,-58.4291654,Coghlan
Mariana Cicatelli,Plaza 1498,-34.5779871,-58.46808890000001,Coghlan
Espacio Newbery,"Av. Jorge Newbery 3075, CYE",-34.577745,-58.4463433,Palermo
Escuela de Tantra Yoga de Argentina,Av. Forest 1227,-34.5776096,-58.46056890000001,Coghlan
Majo Paladino _ yoga Reiki reflexologia,Mariano Acha 1636,-34.5775515,-58.47264970000001,Coghlan
Vale Avancini Yoga,"Av Roosevelt 5706, departamento 2 entre Ceretti, Aizpur√∫a y",-34.5775514,-58.4939776,Coghlan
Espacio Ra√≠ces - Yoga y Salud,Lugones 1721,-34.5772635,-58.47382599999999,Coghlan
Ashtanga Yoga Urquiza,"FBG, Av. Triunvirato 4311",-34.5772472,-58.48154959999999,Coghlan
Escuela Valores Divinos - Shiva Kriya Yoga Argentina,Maure 3015,-34.576972,-58.44691479999999,Coghlan
Gabi Abraham Yoga,Ar√©valo 2255,-34.5769379,-58.4352157,Coghlan
Yoga in Town,Virrey Arredondo 3447,-34.576444,-58.45833750000001,Coghlan
SOMA | Bienestar Integral,Guatemala 6061,-34.5764392,-58.4363966,Coghlan
NIKETAN YOGA y Masaje Tailand√©s.,Concepci√≥n Arenal 2655,-34.576416,-58.4396076,Coghlan
"Yoga, Acroyoga y Masaje Thai",Dr. Emilio Ravignani 2391,-34.5763055,-58.4330216,Coghlan
Espacio Gigi Ohm,C. Pacheco 2035,-34.5761206,-58.4808298,Coghlan
Thai Yoga Studio,Bauness 2254,-34.5760702,-58.48642939999999,Coghlan
Kai Bliss Estudio,Av. Cervi√±o 4483,-34.5759156,-58.4208635,Palermo
Devi,"Av. Combatientes de Malvinas 3757, Villa Urquiza",-34.5758275,-58.4788575,Coghlan
Radha Yoga,Av. Cervi√±o 4600,-34.5757126,-58.4223081,Coghlan
Espacio Sinclair Yoga,Sinclair 2955,-34.5755983,-58.4236725,Coghlan
Yoga Len,"Saavedra, C. Dr. Pedro I. Rivera 5643",-34.5753311,-58.4945767,Coghlan
Ashtanga Yoga Colegiales,Super√≠ 1216,-34.5752753,-58.45763109999999,Coghlan
Tempo Crisalida,"Bauness 2376, C1431DNT",-34.5751809,-58.48718069999999,Coghlan
Somos Kula Yoga - Villa Urquiza,"Dr. Pedro Ignacio Rivera entre Altolaguirre, Burela y",-34.5749121,-58.4933661,Coghlan
DIBELLA ESTUDIO PILATES,Pje. Achega 3008,-34.5745773,-58.4998533,Coghlan
Vita Dorrego: Pilates Yoga AeroYoga Funcional,Av. Dorrego 2735,-34.5743975,-58.4328697,Coghlan
Yoga y Terapias orientales,"Burela, Nahuel Huapi y, Buenos Aires",-34.5743701,-58.4945612,Coghlan
Yoga Urquiza,"Mendoza, Av. √Ålvarez Thomas y",-34.574185,-58.479732,Coghlan
YOGA NINA KURG,"Clay 2836, Ca√±itas",-34.5738658,-58.43173149999999,Palermo
LA NAVE YOGA,Conesa 881,-34.5738348,-58.4495284,Coghlan
Yoga in English,C√©spedes 2961,-34.5736505,-58.4518205,Coghlan
Bindu yoga,Av. Cabildo 157,-34.5735388,-58.4376905,Coghlan
Punto S√°ndalo,Tte. Benjam√≠n Matienzo 2443,-34.5731824,-58.44030660000001,Coghlan
Sala 510 Yoga,Cdad. de la Paz 00510,-34.573094,-58.44366179999999,Coghlan
JIME FAFIAN Estudio de Yoga,Virrey Avil√©s 3124,-34.5728336,-58.4580964,Coghlan
"Clases Online/Presencial de Yoga Individual, Parejas, Grupos y Embarazadas. Sesiones de Decodificaci√≥n Biol√≥gica; Osteopat√≠a Fluido Energ√©tico; T√©cnica Alexander.",Arce 215,-34.5715564,-58.4294757,Coghlan
Yoga‚Ä¢Reiki‚Ä¢Meditaci√≥n,Lavoisier 3232,-34.5713821,-58.4997888,Coghlan
Escuela Yoga Veronica Belloli,Conesa 1319,-34.5713615,-58.4546585,Coghlan
SOMA Espacio de Yoga,Palpa 2510 PB,-34.5707801,-58.44762469999999,Coghlan
yoga en belgrano,Avenida Elcano 2984 1er. Piso Contrafrente,-34.5706475,-58.45793889999999,Coghlan
Cultura-Yoga,Nahuel Huapi 4953,-34.5703364,-58.48744360000001,Coghlan
Maitri Yoga,"Av. Congreso 5156, Villa Urquiza",-34.5702245,-58.4907708,Coghlan
@terrazadeyoga,"Plaza, Av. Olaz√°bal y",-34.5699779,-58.4747117,Coghlan
Casa Yogui,Aizpur√∫a 3434,-34.5696428,-58.5022442,Coghlan
"Kala Yoga, Pilates Mat, Meditaci√≥n","Bucarelli, Quesada &, Buenos Aires",-34.5695481,-58.49383099999999,Coghlan
Centro de Yoga Armonia,"Le breton, C. Pacheco y",-34.5695207,-58.4872757,Coghlan
Lotus Yoga Belgrano,Av. Cabildo 1000,-34.5693809,-58.4464714,Palermo
Serenidad Interna Yoga,C. Pacheco 2891,-34.5693459,-58.4870653,Coghlan
Espacio Kali - Yoga y Movimiento,Nu√±ez 6130,-34.5692222,-58.5045257,Coghlan
Mandala Mat Yoga,"Av. Congreso 5005, AAF",-34.5692056,-58.489392,Coghlan
Arka Yoga Estudio,C. Dr. Pedro I. Rivera 4560,-34.5691506,-58.4820302,Coghlan
Bharat Yoga Villa Urquiza,Av. Donado 2548,-34.5691097,-58.4786265,Coghlan
Fundaci√≥n Hastinapura,Av. Cabildo 1163,-34.5683722,-58.4475965,Coghlan
Maas Yoga Belgrano,"Casa, 3 de Febrero 1165",-34.568214,-58.444112,Coghlan
Centro de Yoga El Andar en Villa Urquiza,"C. Dr. Pedro I. Rivera 4425, BFK",-34.5681985,-58.48106199999999,Coghlan
Espacio Balance,Moldes 1596,-34.568191,-58.4556193,Coghlan
"Madhavi Yoga | Clases de Yoga, Meditaci√≥n | Formaci√≥n de Instructores | Consultas Ayurveda",La Pampa 2940,-34.5680145,-58.4590666,Coghlan
Karuna Espacio Yoga,Dr. R√≥mulo S.Na√≥n 2367,-34.5676136,-58.47232209999999,Coghlan
Vicky Yoga Danza,Pje. Beethoven 3476,-34.5672913,-58.4995814,Coghlan
Yoga Society,Pje. Beethoven 3478,-34.5672428,-58.4996205,Coghlan
Ashvattha YOGA Clases de yoga,Tte. Benjam√≠n Matienzo 1606,-34.567228,-58.4330614,Coghlan
Centro integral G√©nesis,Virrey del Pino 2551,-34.5671613,-58.4543815,Coghlan
Maru Larroque Yoga,Nahuel Huapi 4300,-34.5666527,-58.4806567,Coghlan
Estudio Sattva Nirguna,Nahuel Huapi 4246,-34.5665088,-58.4803061,Coghlan
Centro Buddhi Yoga,Av. Cabildo 1535,-34.5664752,-58.45123779999999,Coghlan
Encuentro Yoga,Mariano Acha 3232,-34.5637797,-58.48486839999999,Coghlan
YoSoY Yoga y Bienestar,Conesa 2267,-34.5636872,-58.46351259999999,Coghlan
Espacio Holistico 7 Colores,Washington 2768,-34.5636226,-58.47477850000001,Coghlan
Centro de Bienestar M√°gica Vibra,Cris√≥logo Larralde 5298,-34.5629707,-58.4952157,Coghlan
Poder Yoga,"Av. Meli√°n 2829, C1430EYI",-34.5623106,-58.47414920000001,Coghlan
Samadhy.yoga,C. Dr. Pedro I. Rivera 3320,-34.5620965,-58.4703884,Coghlan
Yogui Soul,Miller 3539,-34.561151,-58.48937399999999,Coghlan
Estudio de Yoga Espacio Kunda - Yoga / Kundalini / Meditacion / Gong / Talleres / Terapias / Alquiler de espacio,3 de Febrero 1930,-34.5608624,-58.4508178,Coghlan
Alma Sur Yoga,"Echeverr√≠a, O'Higgins &, Buenos Aires",-34.5607954,-58.4520372,Coghlan
Yoga por Jorge Frione,Av. del Libertador 5570,-34.5607824,-58.443859,Coghlan
Mas Yoga,O'Higgins 2056,-34.5603297,-58.45269569999999,Coghlan
Espacio Carmela,Monta√±eses 1847,-34.5597874,-58.4467838,Coghlan
CIYBA Centro Iyengar Yoga BA,Av. Olaz√°bal 2244,-34.5592724,-58.4566962,Coghlan
Yoga Prasanna,Mariano Acha 3677,-34.5586174,-58.4886123,Coghlan
Experiencia Yoga,Cris√≥logo Larralde 4419,-34.558613,-58.4866227,Coghlan
Prana Yoga,"Monta√±eses 1986 piso1 dpto. 4, Buenos Aires",-34.5586074,-58.4479832,Coghlan
Estudio Coghlan Yoga,Estomba 3436,-34.55857820000001,-58.48131050000001,Coghlan
Marina Layna - Yoga tradicional y pre natal,Holmberg 3575,-34.5584764,-58.48497200000001,Coghlan
AOL,Sucre,-34.5583087,-58.4454358,Palermo
Espacio Yoga MODOLILA,Quesada 3155,-34.5581134,-58.4706023,Coghlan
FitFlow Yoga,Amen√°bar 2700,-34.5580758,-58.4630757,Coghlan
Yoga Proyectomadre,Manuel Ugarte 2732,-34.5578718,-58.4648847,Coghlan
Esencia India,"Franklin D. Roosevelt 2445 4 Piso, Oficina C",-34.5578296,-58.4611783,Coghlan
Anandi - by Vicky Canziani,Cdad. de la Paz 2669,-34.5576423,-58.4618293,Coghlan
Constelaciones Familiares y Terapias holisticas,Amen√°bar 2700,-34.5575401,-58.46341739999999,Coghlan
YogalƒÅya Buenos Aires,Echeverr√≠a 1442,-34.5574049,-58.4461416,Coghlan
Escuela Yoga Para Occidente,Manuel Ugarte 2625,-34.5571771,-58.46400000000001,Coghlan
Yoga Marisa Espacio de Yoga-Coghlan/Saavedra - Meditaci√≥n - Terapias - Retiros,Washington 3481,-34.557162,-58.4794065,Coghlan
Saitama,Estomba 3580,-34.5571411,-58.48230090000001,Coghlan
Sadhana Espacio,Monroe 2158,-34.5569674,-58.45752479999999,Coghlan
Meraki Yoga,Paroissien 4750,-34.5568279,-58.4918245,Coghlan
Yoga por Jorge Frione (Belgrano C),Monta√±eses 2225 Piso: 8 A,-34.5560893,-58.4499364,Coghlan
Yoga Wala Estudio,Jaramillo 4078,-34.5560029,-58.48385249999999,Coghlan
"Gala | Pilates, Yoga, Pintura, Cer√°mica",Cdad. de la Paz 2946,-34.555667,-58.4643142,Coghlan
Lupo Yoga,Av. del Libertador 6091 7 C/D,-34.5556532,-58.44822620000001,Coghlan
Hatha Yoga,Av. Dr. Ricardo Balb√≠n 3691,-34.5553787,-58.4821494,Coghlan
Kerala Estudio de Yoga Iyengar. Sonia Khoury Biraben,Av. Olaz√°bal 1562,-34.5553645,-58.45001289999999,Coghlan
Saavedra,"Dr. R√≥mulo S.Na√≥n 3745, EQU",-34.5552068,-58.4835325,Coghlan
Centro de Ashtanga Yoga,Munich 1735,-34.5547942,-58.45340270000001,Coghlan
Estudio de Yoga Maruja Pazos,"Av del Libertador 6223 8p dto 06,Buenos Aires, Aut√≥noma de Buenos Aires",-34.5544642,-58.4493799,Coghlan
Ashtanga yoga Saavedra,Manzanares 3870,-34.5543554,-58.4827287,Coghlan
Prema | Yoga + Bienestar,3 de Febrero 2676,-34.5542838,-58.45655869999999,Coghlan
Ashtanga Yoga Sattva,Av. Congreso 2157,-34.5540281,-58.46008019999999,Coghlan
Oma BA - Pilates & Yoga,Av. Cabildo 3047 Timbre F,-34.5539248,-58.4638186,Coghlan
Dalila Yoga,Av. Congreso 2157,-34.5539217,-58.4601675,Coghlan
Prana House - Yoga & Pilates,Av. del Libertador 6328,-34.5537001,-58.4505039,Coghlan
Nina Clases de Yoga | Masaje Tailand√©s - Belgrano-N√∫√±ez,11 de Septiembre de 1888 2633,-34.5535439,-58.4551528,Coghlan
Yoga ChinaTown,Blanco Encalada 1451,-34.55352999999999,-58.4496815,Coghlan
Yoga IYENGAR Estudio Urbano,Migueletes 2387,-34.5533753,-58.44875009999999,Coghlan
Purnam Instituto Internacional de Yoga,Migueletes 2387,-34.5533753,-58.44875009999999,Coghlan
Lavan House,H√∫sares 2150,-34.553041,-58.44273489999999,Coghlan
YogaTK - Clases de Yoga y Profesorado de Yoga,11 de Septiembre de 1888 2721,-34.5529163,-58.45586119999999,Coghlan
Gabi Abraham Yoga,"Tronador, Besares y",-34.5523515,-58.4870862,Coghlan
Estudio de Yoga Surya Mangalam,"Puerta Simbolo Om, Blanco Encalada 1245",-34.55220389999999,-58.4474594,Coghlan
Pia Yoga,"Av.Libertador, Av. Congreso y",-34.5507596,-58.4531648,Coghlan
OmShanti - Multiespacio,"Zufriategui 3837, Vicente L√≥pez",-34.5506398,-58.503337,Coghlan
Espacio Jaramillo,Jaramillo 2937,-34.5506323,-58.4739012,Coghlan
Mueve (Centro de Yoga),Vuelta de Obligado 3326,-34.5504303,-58.4654933,Coghlan
Alma del Parque,Arribe√±os 2928 timbre 99,-34.5503619,-58.4567596,Coghlan
Fy Espacio de Bienestar,3 de Febrero 3011,-34.5503583,-58.45899989999999,Coghlan
Buen d√≠a Yoga,Zapiola 3855,-34.5502331,-58.475931,Coghlan
Yoga Tierra ¬Æ,"Jos√© Fioravanti 7, Villa Martelli",-34.5501211,-58.5016382,Coghlan
Anjali Yoga Iyengar,Av. del Libertador 6836,-34.5493883,-58.4545088,Coghlan
Asayah Yoga Iyengar Estudio,"M√©jico 3727, Buenos Aires",-34.5492751,-58.50278329999999,Coghlan
Aptattva Yoga Estudio,Jaramillo 2364,-34.5478531,-58.46815700000001,Coghlan
AcroYoga Xima,Paroissien 2680,-34.5478374,-58.47239450000001,Coghlan
Yoga Integrativo,Cris√≥logo Larralde 1934,-34.5467752,-58.4635304,Coghlan
Aruna Yoga,Paroissien 2025,-34.5447237,-58.46632899999999,Coghlan
‚≠ê Lola Armano Yoga üßò‚Äç‚ôÇÔ∏è,"Arist√≥bulo del Valle 2700, Florida",-34.5433021,-58.4911842,Coghlan
Devenir Yoga,Ramallo 1975,-34.5407066,-58.4684881,Coghlan
Abrir_nos,"larpida 2064, Vicente L√≥pez",-34.5388027,-58.484339,Coghlan
AMESAMIS Yoga y Meditaci√≥n,"Juan Bautista Justo 628 Estudio 1, Vicente L√≥pez",-34.5369035,-58.489578,Coghlan
Escuela de Yoga Aham Sphurana,"Aguado 1396, Vicente L√≥pez",-34.5367228,-58.474645,Coghlan
Yoga _ Mar√≠a de Barrio,"Adolfo Alsina 1844, Vicente L√≥pez",-34.5365358,-58.482342,Coghlan
Kundalini Yoga Fulgor del Ser,"B1602CYV Mart√≠n J. Haedo, Gral. Bernardo O'Higgins &, Florida",-34.5350491,-58.4940705,Coghlan
Centro de Yoga La Rueda,"Francisco N. de Laprida 1416, Vicente L√≥pez",-34.5348955,-58.47606939999999,Coghlan
Dand√´lion,"Caseros 513, Vicente L√≥pez",-34.5347077,-58.48137260000001,Coghlan
PAULA VANINA YOGA,Buenos Aires,-34.533901,-58.4788858,Coghlan
fluage,"Caseros 902, Vicente L√≥pez",-34.531179,-58.484021,Coghlan
Yoga con Gaba,"Gdor. Valent√≠n Vergara 2385, Florida",-34.5299217,-58.4939048,Coghlan
El Arte de Vivir,"Av. Maip√∫ 881, Vicente L√≥pez",-34.5297372,-58.48025269999999,Coghlan
Zamurai Espacio Hol√≠stico,"Mart√≠n J. Haedo 1505, Florida",-34.5287818,-58.4813664,Coghlan
Centro Norma Fol,"Virrey Liniers 1331, Florida",-34.528538,-58.488986,Coghlan
ESPACIO MACHI yoga,"Hilari√≥n de la Quintana 1424 dpto 12, Vicente L√≥pez",-34.525458,-58.4849687,Coghlan
YOGA Olivos Dojo,"Gral. Jos√© de San Mart√≠n 1735, Vicente L√≥pez",-34.5253562,-58.48693850000001,Coghlan
AIKIDO - YOGA - Olivos Dojo - Shimbukan Argentina,"Gral. Jos√© de San Mart√≠n 1735, Florida",-34.5253518,-58.48692920000001,Coghlan
