name,address,lat,lng,zone
Yoga Studio Buenos Aires,Esmeralda 1056,-34.5956391,-58.37857649999999,centro2
Vikasana Yoga Palermo,Av. Sta. Fe 3200,-34.5893086,-58.4101282,centro2
VIRYA Yoga Studio Recoleta,Ecuador 1511,-34.5927772,-58.402871,centro2
Sense Yoga,Av. Jujuy 2122,-34.63504560000001,-58.3990352,centro2
Yoga Vida Vital,"Humberto Primo, Piedras y",-34.6209181,-58.3773448,centro2
Estudio yoga Narayana,French 2647,-34.5894871,-58.4011697,centro2
Urdhva Espacio YOGA,Montevideo 513,-34.6026951,-58.38940820000001,centro2
AYOGA Recoleta,Vicente López 2240,-34.587477,-58.3957574,centro2
Āyāma Yoga,"Mario Bravo 1300, C1175ABX",-34.5946167,-58.4148634,centro2
Shanti Yoga Buenos Aires,"Marcelo Torcuato de Alvear 1371, Subsuelo A, C1058AAU",-34.5969392,-58.38668080000001,centro2
Yoga estudio,Florida 732,-34.5995004,-58.37544629999999,centro2
Yoga Factory,Billinghurst 1533,-34.5926408,-58.4118432,centro2
Meraki Yoga,Juan María Gutiérrez 2775,-34.5860503,-58.40081199999999,centro2
"OM Bienestar Integral: Yoga, Coaching y Tarot",Av. Raúl Scalabrini Ortiz 2416,-34.5858041,-58.4173623,centro2
Sodhana Yoga,"Microcentro, Maipú 484 Piso 2",-34.6025649,-58.37684249999999,centro2
Yoga Life,Brasil 431,-34.625311,-58.3716152,centro2
Fundación VIDA NATURAL YOGA,Charcas 2852,-34.5939496,-58.406736,centro2
Centro Ama Surya - Clases de Yoga y Acrobacia en Palermo y Recoleta,Paraguay 1567,-34.5983528,-58.3891972,centro2
Samadhi Yoga,"Paraná 473 1º B, Ciudad autonoma de Buenos Aires",-34.6033136,-58.3878557,centro2
Ganesha Yoga Recoleta,Paraná 858,-34.5987228,-58.38827669999999,centro2
Yoga GarmendiaOrueta,Honduras 3846,-34.594221,-58.4173428,centro2
Antu Malal Ashtanga Yoga,Arenales 2856,-34.59141,-58.40566659999999,centro2
CasaPranna Estudio de Yoga,Av. Sta. Fe 3388,-34.5873303,-58.4130058,centro2
Congreso Yoga,Junín 339,-34.605454,-58.3965741,centro2
La Estación Yoga,Mario Bravo 1029 7° A,-34.5974767,-58.4157107,centro2
San Telmo Yoga,Bolívar 1128,-34.6210482,-58.3727943,centro2
Yoga Estudio,Irala 131,-34.6300035,-58.3687086,centro2
Victoriar yoga,Austria 1728,-34.59058,-58.4077028,centro2
Maas Yoga Recoleta,Ayacucho 1230 PISO 4,-34.5942691,-58.39591919999999,centro2
Balvanera Yoga,"Av. Rivadavia 2530, ACR",-34.6100225,-58.40224079999999,centro2
Dharana Yoga embarazadas & yoga integral & hipopresivos,Paraguay 3423,-34.5927296,-58.4137849,centro2
Yoga integral,"Sarmiento 3057, C1196AAE",-34.6066058,-58.409473,centro2
Satī•Pārvatī ~ Yoga con Elementos,Uruguay 252,-34.605869,-58.3866497,centro2
Yoga en Congreso,Av. Entre Ríos 166,-34.610952,-58.3916361,centro2
Yoga por Hari,Brasil 300,-34.6253092,-58.36934489999999,centro2
Ayre Yoga,Valentín Gómez 3071 C1191AAE,-34.6051988,-58.4089724,centro2
Yoga Congreso,"Av. Callao 339 2º, AAD",-34.6051355,-58.3920535,centro2
YOW Yoga & Wellness,"Sánchez de Loria 2317, C1241ACU",-34.637231,-58.4111827,centro2
Yoga & Wellness,La Rioja 1925,-34.6341115,-58.40611000000001,centro2
Momento de Yoga Ig@momentodeyoga,Peña 3100,-34.5852805,-58.40642860000001,centro2
Estudio infinita yoga,Guise 1618,-34.5930962,-58.4151754,centro2
PrimaYoga y Sanación,Av. Córdoba 2448,-34.5995409,-58.4017759,centro2
Espacio de yoga,"Av. Juan de Garay 2085, C1256AAC",-34.6274737,-58.3941732,centro2
Iyengar Yoga Recoleta,"Avenida Callao 1103 Piso 9 - Depto. i, Buenos Aires",-34.5956893,-58.39313049999999,centro2
Yoga Dinámico en Almagro,Bulnes 638 Sala 5,-34.6040458,-58.4186592,centro2
Sankalpa Pilates y Yoga,Maipú 484,-34.6025759,-58.3767692,centro2
Espacio Raíz Pilates y Yoga,Uruguay 667,-34.6009759,-58.386604,centro2
Maitri Flow,Paraguay 1560,-34.5985985,-58.38914049999999,centro2
Matria- Espacio de Yoga,"Tucumán 2576, ABD",-34.6020533,-58.4032705,centro2
Wawa - Bienestar en cada etapa de tu vida,Av. Sta. Fe 1126,-34.5956087,-58.38326439999999,centro2
Naturaleza yoga,Tucumán 2200,-34.602248,-58.3984065,centro2
ARKA Yoga Iyengar,Azcuénaga 688,-34.601355,-58.40105980000001,centro2
AESTUDIO - yoga en San Telmo,"Timbre ae, Defensa 1460",-34.6248916,-58.37100650000001,centro2
Yoga Recoleta,Juncal,-34.5926999,-58.3778652,centro2
Concepto Yoga Lakshmi,Av. Boedo 200,-34.6138883,-58.41701819999999,centro2
Yoga y Pilates,Av. Caseros 2825,-34.6364584,-58.4025567,centro2
Ashtanga Yoga San Cristóbal - Milita Yoga,Combate de los Pozos 825,-34.618744,-58.39337399999999,centro2
Frontera Yoga,Junín 339,-34.605454,-58.3965741,centro2
Gisela Sueyro Yoga,Paraná 123,-34.6074318,-58.3875922,centro2
Creha Salud y Bienestar,Arenales 1280,-34.5946054,-58.385535,centro2
Be Balance Studio Pilates Microcentro,Tucumán 810,-34.6013495,-58.3783878,centro2
Raiz Interior espacio de Yoga,Av. Rivadavia 1227,-34.6085442,-58.3838568,centro2
Yoga Aldea Shakti,Av. Alicia Moreau de Justo 1848,-34.620621,-58.3650014,centro2
Ashtanga Yoga San Telmo,"Bolívar, Humberto 1º y",-34.6208513,-58.3728063,centro2
Vita Centro de Bienestar,"C1002AAQ HIPOLITO YRIGOYEN 434 6to J, Buenos Aires",-34.60907419999999,-58.3726455,centro2
1H Yoga,parque de la mujer,-34.6081435,-58.3610884,centro2
Susthiti Yoga International School,Trinidad Guevara 335,-34.6033422,-58.3643249,centro2
Estudio de Yoga Iyengar Laura Basile en San Telmo,"Humberto 1º y, Balcarce",-34.620574,-58.37020669999999,centro2
Desde el cuerpo | YOGA,Tacuarí al 1000,-34.6196603,-58.37878180000001,centro2
Hot Room Yoga,"Esmeralda 754, ABH",-34.5994448,-58.37833839999999,centro2
Fundación Hampatu,"Florida 835 3ºpiso. C1005AAQ Ofi 323, AAQ",-34.5982514,-58.37531440000001,centro2
MARINA LORENZO YOGA,Av. Córdoba 857,-34.5987906,-58.37909920000001,centro2
Garage del Carmen,Ituzaingó 747,-34.6307815,-58.37483959999999,centro2
Centro de Yoga Inti Killa,"Pres. Luis Sáenz Peña 600, C1077AAO",-34.6153746,-58.3873748,centro2
Yoga Centro,Tacuarí 745,-34.6168546,-58.3788833,centro2
YOGA en C.A.B.A.,Lima 1125,-34.62120290000001,-58.3816189,centro2
Yoga y Vida,Humberto 1º 936,-34.6209605,-58.3792833,centro2
stretch club,1063,-34.62002,-58.3701436,centro2
Espacio Saraswati,Salta 944,-34.619039,-58.3828681,centro2
ByBa Yoga Buenos Aires,Montevideo 1035 Planta Alta,-34.5967028,-58.389761,centro2
Parama Yoga Recoleta,Av. Sta. Fe 1780,-34.5960783,-58.39291739999999,centro2
Yoga Kali Ashtanga Vinyasa,Ayacucho 136,-34.6076537,-58.3951016,centro2
Yoga Iyengar Monica Moya,Arenales 1645,-34.5949179,-58.3907983,centro2
NIDO YOGA,Av. Callao 194,-34.60695010000001,-58.39226089999999,centro2
Maha Yoga Iyengar,Junín 1480,-34.5910727,-58.3952626,centro2
Fundación Hastinapura,Tucumán 1762,-34.602046,-58.39200460000001,centro2
"Centro de Eutonía, Yoga y Yogaterapia",Rodríguez Peña 1054,-34.5965822,-58.392125,centro2
Grupo Joops,"Av. Sta. Fe 1845, AAA",-34.5956896,-58.3938796,centro2
Ashtanga Yoga Congreso de Emilia Escaris Pazos,Adolfo Alsina 1900,-34.6115304,-58.3934007,centro2
aṣṭau yoga studio,Austria 2272,-34.5865362,-58.4021926,centro2
Sahya Yoga,Cabello 3652,-34.5808627,-58.41134499999999,centro2
Shanti Dance Yoga & Pilates,"Larrea, Viamonte y",-34.601445,-58.4024553,centro2
Yoguinis omm : Clases de yoga para niños y adultos Profesorado de yoga para niños,Paraguay 3423,-34.5927296,-58.4137849,centro2
Chandra Yoga Iyengar,"Lavalle 2849, 1190, C1190AAC, AAC",-34.6030073,-58.4067654,centro2
Centro Yoga En Casa,"C1425 Cdad. Autónoma de Buenos Aires, Argentina",-34.5802096,-58.40989349999999,centro2
OM ALLIANCE YOGA,"No se dictan clases presenciales en esta dirección, Av. Rivadavia 3000",-34.6104735,-58.40878579999999,centro2
Corporal Centro De Bienestar Fisico,Julián Álvarez 2672,-34.5854147,-58.4128672,centro2
Yoga Buenos Aires - Sede Almagro,Gascón 50,-34.6119527,-58.4241311,centro2
Laura Alperovich Yoga y Bioenergética,Av. Medrano 485,-34.6052502,-58.42111569999999,centro2
Yoga alma yogui v.l.,Quintino Bocayuva 228,-34.6151665,-58.4229104,centro2
Maho Espacio Yoga,Palermo Online,-34.597639,-58.42143919999999,centro2
Delmar - Ashtanga & Rocket Yoga,Guardia Vieja 4083,-34.6004652,-58.42186699999999,centro2
Yoga Vidya,"Pringles, Gorriti y, Buenos Aires",-34.5951142,-58.42399719999999,centro2
Yoga Surya,"Maza 448, C1206ACJ",-34.6163703,-58.41544089999999,centro2
MUTA - Yoga,Colombres 65,-34.6122518,-58.41957319999999,centro2
Alejandrina Yoga Masajes,"Av San Juan, Av. Boedo y",-34.6254582,-58.41612829999999,centro2
Hastinapura Monserrat,"Solis 576 3er piso , CABA, C1098ABC",-34.6153508,-58.39030440000001,centro2
Lo que Vibras te encuentra,Av. Díaz Vélez 3934,-34.6087123,-58.4220403,centro2
Fundación Hastinapura Escuela de Filosofía de Oriente Y Occidente,Solís 576 3er Piso,-34.6153319,-58.390258,centro2
Shala&Casa - Iyengar Yoga,Sarmiento 4044 1°5°,-34.6048663,-58.4219555,centro2
Yoga Habitando el Ser,"Maza, Estados Unidos y",-34.6226939,-58.4147872,centro2
Aeroyoga Palermo,Gorriti 3800,-34.5953537,-58.41882709999999,centro2
Padma Yoga Iyengar,Mario Bravo 1029,-34.5975657,-58.4157628,centro2
Casa Vaiu Yoga,"Saavedra 1182, C1229ACN",-34.6231648,-58.4008559,centro2
Yoga en almagro,Gascón 1085,-34.5982241,-58.42315420000001,centro2
Iara Yoga,Sarmiento 4287,-34.604269,-58.4255123,centro2
Yoga Integral BILBO,Mario Bravo 641,-34.6019495,-58.41632190000001,centro2
Yoga con Elementos - Almagro,"Lavalle, Mario Bravo y",-34.5997315,-58.41599789999999,centro2
Yoga Iyengar / Mariana Indart,"C1209ABQ, Moreno 3655, Buenos Aires",-34.614559,-58.4178405,centro2
YAD YOGAARTEDISCAPACIDADWATERYOGA Chris la Valle,Larrea 736 3 c,-34.6004323,-58.40250299999999,centro2
Estudio de Yoga -Milagros García,"DYF, Cachi 210, C1437DYF",-34.6457271,-58.4126449,centro2
Instituto de Yoga Maria Poveda,Ciudad Autónoma de Buenos Aires,-34.6332418,-58.40758340000001,centro2
Clases de YOGA ~ Amalia,"2225, Buenos Aires",-34.6480804,-58.37891980000001,centro2
Yoga y Pilates laura,Baigorri 191 191,-34.6356619,-58.3859038,centro2
Chatra Yoga Parque Patricios,"Sanchez de Loria 2345 No es a la calle, Sánchez de Loria 2343 C1241ACT EDIFICIO PISO 6",-34.6375421,-58.4112312,centro2
"HerManadas, espacio de multiencuentro",Cochabamba 2741,-34.625422,-58.40366280000001,centro2
Dharma yoga,Av. Independencia 2210,-34.6186279,-58.39768890000001,centro2
