name,address,lat,lng,zone
Ardha Yoga Estudio,Guatemala 5011,-34.5839009,-58.4273578,palermo2
Vikasana Yoga Palermo,Av. Sta. Fe 3200,-34.5893086,-58.4101282,palermo2
VIRYA Yoga Studio Recoleta,Ecuador 1511,-34.5927772,-58.402871,palermo2
Maas Yoga Belgrano,"Casa, 3 de Febrero 1165",-34.568214,-58.444112,palermo2
"Yoga, Acroyoga y Masaje Thai",Dr. Emilio Ravignani 2391,-34.5763055,-58.4330216,palermo2
Andy Yoga Estudio - Clases de Yoga en Colegiales - Palermo,"Alvarez Thomas, Av. Dorrego y, Buenos Aires",-34.5830442,-58.4450199,palermo2
YouBe Yoga Studio,Guatemala 5779,-34.5788191,-58.4335949,palermo2
Yoga Estudio Chacarita,"Fraga 717 P, Fraga 717",-34.5841439,-58.453616,palermo2
Estudio yoga Narayana,French 2647,-34.5894871,-58.4011697,palermo2
Urdhva Espacio YOGA,Montevideo 513,-34.6026951,-58.38940820000001,palermo2
Nida Yoga,Teodoro García 3399,-34.5791606,-58.45169480000001,palermo2
Meraki Yoga,Juan María Gutiérrez 2775,-34.5860503,-58.40081199999999,palermo2
Mood Yoga Hollywood,Av. Dorrego 1711 Timbre 11,-34.581735,-58.44304089999999,palermo2
Adhara Yoga,Julián Álvarez 1343,-34.5939382,-58.4256109,palermo2
Centro De Yoga D.C.,"Arévalo 1695, CQG",-34.5811278,-58.44041190000001,palermo2
Sala 510 Yoga,Cdad. de la Paz 00510,-34.573094,-58.44366179999999,palermo2
Āyāma Yoga,"Mario Bravo 1300, C1175ABX",-34.5946167,-58.4148634,palermo2
Yoga Vidya,"Pringles, Gorriti y, Buenos Aires",-34.5951142,-58.42399719999999,palermo2
AYOGA Recoleta,Vicente López 2240,-34.587477,-58.3957574,palermo2
Yoga Factory,Billinghurst 1533,-34.5926408,-58.4118432,palermo2
KURMA YOGA,Hidalgo,-34.6075427,-58.4414211,palermo2
Yoga Colegiales,Santos Dumont 3454,-34.5828621,-58.4472025,palermo2
Fundación VIDA NATURAL YOGA,Charcas 2852,-34.5939496,-58.406736,palermo2
Momento de Yoga Ig@momentodeyoga,Peña 3100,-34.5852805,-58.40642860000001,palermo2
Centro Ama Surya - Clases de Yoga y Acrobacia en Palermo y Recoleta,Paraguay 1567,-34.5983528,-58.3891972,palermo2
Samadhi Yoga,"Paraná 473 1º B, Ciudad autonoma de Buenos Aires",-34.6033136,-58.3878557,palermo2
Tapas estudio de yoga,Lerma 490,-34.594233,-58.43212819999999,palermo2
Yoga Flow Terapéutico Palermo,Darregueyra 2140,-34.5835737,-58.4270253,palermo2
YOGA SATTVA,Av. Sta. Fe 3800,-34.5841301,-58.4177175,palermo2
Ganesha Yoga Recoleta,Paraná 858,-34.5987228,-58.38827669999999,palermo2
Laura Alperovich Yoga y Bioenergética,Av. Medrano 485,-34.6052502,-58.42111569999999,palermo2
PH Calma Yoga & Meditación,Juan Ramírez de Velasco 1158,-34.5925255,-58.442309,palermo2
Urban Lotus,Nicaragua 6042,-34.5782371,-58.438181,palermo2
PuraVida Yoga,Ángel Justiniano Carranza 2200,-34.5784239,-58.4335161,palermo2
Yoga GarmendiaOrueta,Honduras 3846,-34.594221,-58.4173428,palermo2
Antu Malal Ashtanga Yoga,Arenales 2856,-34.59141,-58.40566659999999,palermo2
CasaPranna Estudio de Yoga,Av. Sta. Fe 3388,-34.5873303,-58.4130058,palermo2
Dash Pilates & Yoga,Av. Raúl Scalabrini Ortiz 2069,-34.5881753,-58.4205504,palermo2
Radha Yoga,Av. Cerviño 4600,-34.5757126,-58.4223081,palermo2
Congreso Yoga,Junín 339,-34.605454,-58.3965741,palermo2
Malva Yoga,Vera 408,-34.5997286,-58.43719149999999,palermo2
La Estación Yoga,Mario Bravo 1029 7° A,-34.5974767,-58.4157107,palermo2
Maas Yoga Recoleta,Ayacucho 1230 PISO 4,-34.5942691,-58.39591919999999,palermo2
Yoga Buenos Aires - Sede Almagro,Gascón 50,-34.6119527,-58.4241311,palermo2
Ashtanga Yoga Claudio Querol,Av. Álvarez Thomas 20,-34.5831092,-58.44486610000001,palermo2
Estudio Shakti- Yoga Iyengar,Humboldt 2433,-34.5791209,-58.428371,palermo2
Balvanera Yoga,"Av. Rivadavia 2530, ACR",-34.6100225,-58.40224079999999,palermo2
Gabi Abraham Yoga,Arévalo 2255,-34.5769379,-58.4352157,palermo2
Yoga Dinámico en Almagro,Bulnes 638 Sala 5,-34.6040458,-58.4186592,palermo2
Mas Yoga,O'Higgins 2056,-34.5603297,-58.45269569999999,palermo2
Yoga integral,"Sarmiento 3057, C1196AAE",-34.6066058,-58.409473,palermo2
"FLOW HAPPINESS YOGA, MEDITACIÓN & TERAPIA EMOCIONES CON BACH (Palermo, Online y Tigre centro)","Fitz Roy, Av. Sta. Fe Y, Buenos Aires",-34.578153,-58.4291567,palermo2
Profesorado de Yoga,Gascón 1467,-34.59327940000001,-58.42264719999999,palermo2
Yoga en Congreso,Av. Entre Ríos 166,-34.610952,-58.3916361,palermo2
"Clases Online/Presencial de Yoga Individual, Parejas, Grupos y Embarazadas. Sesiones de Decodificación Biológica; Osteopatía Fluido Energético; Técnica Alexander.",Arce 215,-34.5715564,-58.4294757,palermo2
Fusión Corporal Yoga y Pilates,Thames 575,-34.5950245,-58.4420852,palermo2
Iyengar Yoga Recoleta,"Avenida Callao 1103 Piso 9 - Depto. i, Buenos Aires",-34.5956893,-58.39313049999999,palermo2
Yoga Congreso,"Av. Callao 339 2º, AAD",-34.6051355,-58.3920535,palermo2
Mood Yoga Soho,"Fray Justo Sta. María de Oro 2178, C1425FOC",-34.582635,-58.4275282,palermo2
Yoga por Jorge Frione,Av. del Libertador 5570,-34.5607824,-58.443859,palermo2
"OM Bienestar Integral: Yoga, Coaching y Tarot",Av. Raúl Scalabrini Ortiz 2416,-34.5858041,-58.4173623,palermo2
Shanti Yoga Buenos Aires,"Marcelo Torcuato de Alvear 1371, Subsuelo A, C1058AAU",-34.5969392,-58.38668080000001,palermo2
Dharana Yoga embarazadas & yoga integral & hipopresivos,Paraguay 3423,-34.5927296,-58.4137849,palermo2
Victoriar yoga,Austria 1728,-34.59058,-58.4077028,palermo2
Estudio infinita yoga,Guise 1618,-34.5930962,-58.4151754,palermo2
PrimaYoga y Sanación,Av. Córdoba 2448,-34.5995409,-58.4017759,palermo2
Kai Bliss Estudio,Av. Cerviño 4483,-34.5759156,-58.4208635,palermo2
Wawa - Bienestar en cada etapa de tu vida,Av. Sta. Fe 1126,-34.5956087,-58.38326439999999,palermo2
Maho Espacio Yoga,Palermo Online,-34.597639,-58.42143919999999,palermo2
Maitri Flow,Paraguay 1560,-34.5985985,-58.38914049999999,palermo2
Parama Yoga Recoleta,Av. Sta. Fe 1780,-34.5960783,-58.39291739999999,palermo2
Creha Salud y Bienestar,Arenales 1280,-34.5946054,-58.385535,palermo2
aṣṭau yoga studio,Austria 2272,-34.5865362,-58.4021926,palermo2
Espacio Lilam,"Charcas 3901-3999,C1425BNC, BNC",-34.5866416,-58.41929889999999,palermo2
"Astroyogadanz: Profesorado de Hatha Yoga especialización en Vinyasa. Clases de Yoga, Danza, Pilates y Elongación. Astrología",Jerónimo Salguero 1674,-34.5905283,-58.41726689999999,palermo2
Sahya Yoga,Cabello 3652,-34.5808627,-58.41134499999999,palermo2
Sakti Espacio Corporal,Gorriti 3600,-34.5954686,-58.4158067,palermo2
Espacio Raíz Pilates y Yoga,Uruguay 667,-34.6009759,-58.386604,palermo2
Go Fit Pilates Recoleta,Laprida 1173,-34.5953181,-58.40791549999999,palermo2
Yoga Iyengar Monica Moya,Arenales 1645,-34.5949179,-58.3907983,palermo2
Yoguinis omm : Clases de yoga para niños y adultos Profesorado de yoga para niños,Paraguay 3423,-34.5927296,-58.4137849,palermo2
Delmar - Ashtanga & Rocket Yoga,Guardia Vieja 4083,-34.6004652,-58.42186699999999,palermo2
ByBa Yoga Buenos Aires,Montevideo 1035 Planta Alta,-34.5967028,-58.389761,palermo2
DIVINA GRULLA ESPACIO HOLISTICO,"Soler 4125, C1425BWS",-34.5904678,-58.4193598,palermo2
Centro Yoga En Casa,"C1425 Cdad. Autónoma de Buenos Aires, Argentina",-34.5802096,-58.40989349999999,palermo2
wisecatyoga,Gorriti 3642,-34.5958656,-58.41591929999999,palermo2
ARKA Yoga Iyengar,Azcuénaga 688,-34.601355,-58.40105980000001,palermo2
Padma Yoga Iyengar,Mario Bravo 1029,-34.5975657,-58.4157628,palermo2
JESICA LANZILLOTTA,Gorriti 3800,-34.5955564,-58.4183658,palermo2
Corporal Centro De Bienestar Fisico,Julián Álvarez 2672,-34.5854147,-58.4128672,palermo2
Escuela de Natha Yoga,C. Silvio L. Ruggeri 2776 PB,-34.5819966,-58.40795120000001,palermo2
Yoga Project BA,Gorriti 3642,-34.5958656,-58.41591929999999,palermo2
Maha Yoga Iyengar,Junín 1480,-34.5910727,-58.3952626,palermo2
"Centro de Eutonía, Yoga y Yogaterapia",Rodríguez Peña 1054,-34.5965822,-58.392125,palermo2
Yoga con Elementos - Almagro,"Lavalle, Mario Bravo y",-34.5997315,-58.41599789999999,palermo2
Matria- Espacio de Yoga,"Tucumán 2576, ABD",-34.6020533,-58.4032705,palermo2
Ashtanga yoga Barrio Norte,Agüero 1595,-34.5919769,-58.4071559,palermo2
"▷ Yoga Krea: Clases de hatha yoga dinámico presenciales y online - Recoleta, Ciudad de Buenos Aires.","Coronel Diaz, Av. Gral. Las Heras y, Buenos Aires",-34.5832835,-58.40601699999999,palermo2
Espacio Enersense Energy,"Laprida 1898, C1425EKR",-34.5884969,-58.4011191,palermo2
Estudio Pacifico,"C1425FVG, Fitz Roy 2461, FVG",-34.5780406,-58.4291654,palermo2
Nalu Yoga y Meditacion,Humboldt 2254,-34.5803966,-58.43077889999999,palermo2
Espacio Sinclair Yoga,Sinclair 2955,-34.5755983,-58.4236725,palermo2
Casa Om,"2461 9 piso, Fitz Roy, Buenos Aires",-34.5781718,-58.4291194,palermo2
Vita Dorrego: Pilates Yoga AeroYoga Funcional,Av. Dorrego 2735,-34.5743975,-58.4328697,palermo2
Palermo Pilates,"Darregueyra 2387, FLQ",-34.5812241,-58.4246586,palermo2
Ashvattha YOGA Clases de yoga,Tte. Benjamín Matienzo 1606,-34.567228,-58.4330614,palermo2
Estudio de Yoga Surya Mangalam,"Puerta Simbolo Om, Blanco Encalada 1245",-34.55220389999999,-58.4474594,palermo2
Yoga IYENGAR Estudio Urbano,Migueletes 2387,-34.5533753,-58.44875009999999,palermo2
Yogalāya Buenos Aires,Echeverría 1442,-34.5574049,-58.4461416,palermo2
Kerala Estudio de Yoga Iyengar. Sonia Khoury Biraben,Av. Olazábal 1562,-34.5553645,-58.45001289999999,palermo2
Jardín del Cuerpo Yoga,Migueletes 2387,-34.5534308,-58.4487909,palermo2
Estudio de Yoga Maruja Pazos,"Av del Libertador 6223 8p dto 06,Buenos Aires, Autónoma de Buenos Aires",-34.5544642,-58.4493799,palermo2
Yoga ChinaTown,Blanco Encalada 1451,-34.55352999999999,-58.4496815,palermo2
Prana Yoga,"Montañeses 1986 piso1 dpto. 4, Buenos Aires",-34.5586074,-58.4479832,palermo2
NIKETAN YOGA y Masaje Tailandés.,Concepción Arenal 2655,-34.576416,-58.4396076,palermo2
Lupo Yoga,Av. del Libertador 6091 7 C/D,-34.5556532,-58.44822620000001,palermo2
Ariana Noto Yoga,Calle Jorge Newbery 3254,-34.5798152,-58.447059,palermo2
Yoga Verde Vida,"El Salvador, A. J. Carranza y",-34.5809291,-58.4370928,palermo2
SOMA | Bienestar Integral,Guatemala 6061,-34.5764392,-58.4363966,palermo2
Centro Ananda yoga,Federico Lacroze 3230,-34.5784711,-58.44956310000001,palermo2
Punto Sándalo,Tte. Benjamín Matienzo 2443,-34.5731824,-58.44030660000001,palermo2
LA NAVE YOGA,Conesa 881,-34.5738348,-58.4495284,palermo2
Escuela Valores Divinos - Shiva Kriya Yoga Argentina,Maure 3015,-34.576972,-58.44691479999999,palermo2
Bindu yoga,Av. Cabildo 157,-34.5735388,-58.4376905,palermo2
Fundación Hastinapura,Av. Cabildo 1163,-34.5683722,-58.4475965,palermo2
Espacio Carmela,Montañeses 1847,-34.5597874,-58.4467838,palermo2
Estudio de Yoga Espacio Kunda - Yoga / Kundalini / Meditacion / Gong / Talleres / Terapias / Alquiler de espacio,3 de Febrero 1930,-34.5608624,-58.4508178,palermo2
Espacio Newbery,"Av. Jorge Newbery 3075, CYE",-34.577745,-58.4463433,palermo2
Yoga por Jorge Frione (Belgrano C),Montañeses 2225 Piso: 8 A,-34.5560893,-58.4499364,palermo2
SOMA Espacio de Yoga,Palpa 2510 PB,-34.5707801,-58.44762469999999,palermo2
Ashtanga Yoga Centro Carlos Frione,Concepción Arenal 2900,-34.5788597,-58.4419473,palermo2
Purnam Instituto Internacional de Yoga,Migueletes 2387,-34.5533753,-58.44875009999999,palermo2
Lavan House,Húsares 2150,-34.553041,-58.44273489999999,palermo2
Alma Sur Yoga,"Echeverría, O'Higgins &, Buenos Aires",-34.5607954,-58.4520372,palermo2
Bali.espacio Palermo Hollywood,Costa Rica 5647 1 B,-34.5822392,-58.4350476,palermo2
Yoga Terapéutico Colegiales,"Av. Jorge Newbery, Cap. Gral. Ramón Freire &, Buenos Aires",-34.5781411,-58.4462941,palermo2
AOL,Sucre,-34.5583087,-58.4454358,palermo2
yoga en belgrano,Avenida Elcano 2984 1er. Piso Contrafrente,-34.5706475,-58.45793889999999,palermo2
Be Pulse - Yoga,Fitz Roy 1459 departamento 504,-34.5862878,-58.43863529999999,palermo2
Hatha Yoga,Loyola 940,-34.592558,-58.43885799999999,palermo2
Respira Yoga,Uriarte 1241,-34.5900013,-58.43572099999999,palermo2
"Ambra, Espacio Holístico",Av. Córdoba 5151,-34.5903222,-58.4355055,palermo2
Laura Lebedinsky Ashtanga Yoga,"Charlone, Santos Dumont &, Buenos Aires",-34.5843107,-58.4480775,palermo2
Yoga Valletierra,Costa Rica 4562,-34.5891812,-58.42594179999999,palermo2
"Madhavi Yoga | Clases de Yoga, Meditación | Formación de Instructores | Consultas Ayurveda",La Pampa 2940,-34.5680145,-58.4590666,palermo2
Juan Haberfeld Estudio,Av. Álvarez Thomas 1122 depto D,-34.5786443,-58.4575468,palermo2
Escuela Yoga Veronica Belloli,Conesa 1319,-34.5713615,-58.4546585,palermo2
Escuela de Ashtanga Yoga Buenos Aires,Charlone 155,-34.5843463,-58.44747259999999,palermo2
JIME FAFIAN Estudio de Yoga,Virrey Avilés 3124,-34.5728336,-58.4580964,palermo2
luleå Yoga Studio Chacarita,Av. Córdoba 6138,-34.58377979999999,-58.4470311,palermo2
Argentina Kundalini Yoga,Fraga 599,-34.5848028,-58.45218569999999,palermo2
Selva Mariana Alegre- Yoga Palermo,El Salvador 5640,-34.5831254,-58.4358616,palermo2
Ashtanga Yoga Palermo,Malabia 1346,-34.5925148,-58.4298618,palermo2
Dhamma Abhyasa Yoga,Pje. el Maestro 52,-34.6168839,-58.43098920000001,palermo2
Mangala Yoga Shala,"C1414AOQ Buenos Aires AR, Vera 817, Buenos Aires",-34.5960149,-58.4402897,palermo2
Yana Yoga & Armonización - Caballito,"Guayaquil 777 y, Villa Luro",-34.6216613,-58.4391064,palermo2
Lila Shala Yoga,parque centenario,-34.6037021,-58.43908709999999,palermo2
Yoga en vos,"C1414BYD Ciudad Autónoma de Buenos Aires AR, Leopoldo Marechal 1220, BYD",-34.604279,-58.44031709999999,palermo2
Lokah Yoga Studio,Dr. Eleodoro Lobos 330,-34.6137599,-58.4357887,palermo2
Aeroyoga Palermo,Gorriti 3800,-34.5953537,-58.41882709999999,palermo2
Yoga alma yogui v.l.,Quintino Bocayuva 228,-34.6151665,-58.4229104,palermo2
Espacio Solara,Av. Córdoba 4867,-34.5921125,-58.4328614,palermo2
Yoga Renaciendo Caballito,Eduardo Acevedo 27,-34.6152258,-58.4307083,palermo2
Flor yoga,Antezana 21,-34.6028728,-58.441858,palermo2
Indigo Hatha Yoga,"Dr Gregorio Araoz Alfaro, Av. Acoyte y, Buenos Aires",-34.6157835,-58.43747079999999,palermo2
Panda - Espacio de yoga,Mahatma Gandhi 427,-34.6045491,-58.44232530000001,palermo2
Iara Yoga,Sarmiento 4287,-34.604269,-58.4255123,palermo2
Ayre Yoga,Valentín Gómez 3071 C1191AAE,-34.6051988,-58.4089724,palermo2
Yoga Surya,"Maza 448, C1206ACJ",-34.6163703,-58.41544089999999,palermo2
Aura Yoga,Costa Rica 4606,-34.5886482,-58.42648149999999,palermo2
MUTA - Yoga,Colombres 65,-34.6122518,-58.41957319999999,palermo2
Concepto Yoga Lakshmi,Av. Boedo 200,-34.6138883,-58.41701819999999,palermo2
Eyra Yoga,Av. Angel Gallardo 98,-34.6030134,-58.43374859999999,palermo2
Lo que Vibras te encuentra,Av. Díaz Vélez 3934,-34.6087123,-58.4220403,palermo2
MOVIMIENTO ACRO (Clases: Ashtanga Yoga + Rocket Yoga + Invertidas ),Aguirre 1136,-34.5918921,-58.44117669999999,palermo2
Shala Club Yoga y Bienestar,Rosario 732,-34.6205199,-58.4391396,palermo2
Espacio H - Yoga & Té,Honduras 4866,-34.5897513,-58.4289061,palermo2
Bona Yoga,Castillo 384,-34.5966488,-58.4333154,palermo2
La Maloca,Gascón 1467,-34.59327940000001,-58.42264719999999,palermo2
Clases Ashtanga Yoga Micaela Muñoz,Luis Viale 108,-34.6025165,-58.4440675,palermo2
Shala&Casa - Iyengar Yoga,Sarmiento 4044 1°5°,-34.6048663,-58.4219555,palermo2
Espacio Vertiente,Galicia 526,-34.6042723,-58.44892829999999,palermo2
Lilapilates YOGA ‍ ️ ‍ ️ ‍ ️,"Av. Belgrano 4200, José Mármol 300, Buenos Aires",-34.6160575,-58.4258325,palermo2
Naturaleza yoga,Tucumán 2200,-34.602248,-58.3984065,palermo2
Ashtanga Yoga San Cristóbal - Milita Yoga,Combate de los Pozos 825,-34.618744,-58.39337399999999,palermo2
Frontera Yoga,Junín 339,-34.605454,-58.3965741,palermo2
Yoga Kali Ashtanga Vinyasa,Ayacucho 136,-34.6076537,-58.3951016,palermo2
Shanti Dance Yoga & Pilates,"Larrea, Viamonte y",-34.601445,-58.4024553,palermo2
Fundación Hastinapura Escuela de Filosofía de Oriente Y Occidente,Solís 576 3er Piso,-34.6153319,-58.390258,palermo2
